[{"OBJECT_NAME":"STARLINK-32845","OBJECT_ID":"2025-018K","EPOCH":"2026-03-09T21:35:15.269856","MEAN_MOTION":15.30210645,"ECCENTRICITY":0.00017732,"INCLINATION":53.1586,"RA_OF_ASC_NODE":308.4026,"ARG_OF_PERICENTER":148.7409,"MEAN_ANOMALY":211.3697,"EPHEMERIS_TYPE":0,"CLASSIFICATION_TYPE":"U","NORAD_CAT_ID":62815,"ELEMENT_SET_NO":999,"REV_AT_EPOCH":6320,"BSTAR":0.00074431831,"MEAN_MOTION_DOT":0.00021757,"MEAN_MOTION_DDOT":0},{"OBJECT_NAME":"SCS-01 D","OBJECT_ID":"2025-100D","EPOCH":"2026-03-09T18:08:45.040704","MEAN_MOTION":15.31902149,"ECCENTRICITY":0.00063457,"INCLINATION":97.373,"RA_OF_ASC_NODE":145.4097,"ARG_OF_PERICENTER":266.2302,"MEAN_ANOMALY":93.8214,"EPHEMERIS_TYPE":0,"CLASSIFICATION_TYPE":"U","NORAD_CAT_ID":63985,"ELEMENT_SET_NO":999,"REV_AT_EPOCH":4562,"BSTAR":0.0010528181,"MEAN_MOTION_DOT":0.00032471,"MEAN_MOTION_DDOT":0}]
